{
  "type": "FeatureCollection",
  "features": [
    {
      "type": "Feature",
      "properties": {
        "norad_id": 34389,
        "name": "COSMOS 2251 DEB",
        "group": "cosmos-2251-debris",
        "lat": 1.4449687936360385,
        "lon": -100.58413726359187,
        "alt_km": 735.8252329231582,
        "timestamp": "2025-12-07T18:50:17.109023+00:00",
        "meta_object_name": "COSMOS 2251 DEB",
        "meta_object_id": "1993-036QE",
        "meta_epoch": "2025-12-07T06:13:55.193376",
        "meta_mean_motion": 14.41511369,
        "meta_eccentricity": 0.00286493,
        "meta_inclination": 74.0196,
        "meta_ra_of_asc_node": 259.9752,
        "meta_arg_of_pericenter": 13.1094,
        "meta_mean_anomaly": 143.8933,
        "meta_ephemeris_type": 0,
        "meta_classification_type": "U",
        "meta_norad_cat_id": 34389,
        "meta_element_set_no": 999,
        "meta_rev_at_epoch": 87933,
        "meta_bstar": 0.00078593567,
        "meta_mean_motion_dot": 2.539e-05,
        "meta_mean_motion_ddot": 0,
        "tle_line1": "1 34389U 93036QE  25341.25966659  .00002539  00000+0  78594-3 0  9995",
        "tle_line2": "2 34389  74.0196 259.9752 0028649  13.1094 143.8933 14.41511369879338"
      },
      "geometry": {
        "type": "Point",
        "coordinates": [
          -100.58413726359187,
          1.4449687936360385
        ]
      }
    },
    {
      "type": "Feature",
      "properties": {
        "norad_id": 34396,
        "name": "COSMOS 2251 DEB",
        "group": "cosmos-2251-debris",
        "lat": 57.73595001467776,
        "lon": 160.68889287807949,
        "alt_km": 643.982878416029,
        "timestamp": "2025-12-07T18:50:17.109034+00:00",
        "meta_object_name": "COSMOS 2251 DEB",
        "meta_object_id": "1993-036QM",
        "meta_epoch": "2025-12-06T16:33:14.096736",
        "meta_mean_motion": 14.74155148,
        "meta_eccentricity": 0.00067682,
        "meta_inclination": 74.0285,
        "meta_ra_of_asc_node": 135.8471,
        "meta_arg_of_pericenter": 182.0025,
        "meta_mean_anomaly": 189.9781,
        "meta_ephemeris_type": 0,
        "meta_classification_type": "U",
        "meta_norad_cat_id": 34396,
        "meta_element_set_no": 999,
        "meta_rev_at_epoch": 88257,
        "meta_bstar": 0.0038427461,
        "meta_mean_motion_dot": 0.00025426,
        "meta_mean_motion_ddot": 0,
        "tle_line1": "1 34396U 93036QM  25340.68974649  .00025426  00000+0  38427-2 0  9997",
        "tle_line2": "2 34396  74.0285 135.8471 0006768 182.0025 189.9781 14.74155148882570"
      },
      "geometry": {
        "type": "Point",
        "coordinates": [
          160.68889287807949,
          57.73595001467776
        ]
      }
    },
    {
      "type": "Feature",
      "properties": {
        "norad_id": 34400,
        "name": "COSMOS 2251 DEB",
        "group": "cosmos-2251-debris",
        "lat": 70.8191787974151,
        "lon": 158.55235202571996,
        "alt_km": 411.81978966276347,
        "timestamp": "2025-12-07T18:50:17.109044+00:00",
        "meta_object_name": "COSMOS 2251 DEB",
        "meta_object_id": "1993-036QR",
        "meta_epoch": "2025-12-07T02:55:13.341216",
        "meta_mean_motion": 15.50411557,
        "meta_eccentricity": 0.00066722,
        "meta_inclination": 73.967,
        "meta_ra_of_asc_node": 35.7746,
        "meta_arg_of_pericenter": 270.4783,
        "meta_mean_anomaly": 89.5665,
        "meta_ephemeris_type": 0,
        "meta_classification_type": "U",
        "meta_norad_cat_id": 34400,
        "meta_element_set_no": 999,
        "meta_rev_at_epoch": 89887,
        "meta_bstar": 0.0043430729,
        "meta_mean_motion_dot": 0.00255464,
        "meta_mean_motion_ddot": 0,
        "tle_line1": "1 34400U 93036QR  25341.12168219  .00255464  00000+0  43431-2 0  9999",
        "tle_line2": "2 34400  73.9670  35.7746 0006672 270.4783  89.5665 15.50411557898872"
      },
      "geometry": {
        "type": "Point",
        "coordinates": [
          158.55235202571996,
          70.8191787974151
        ]
      }
    },
    {
      "type": "Feature",
      "properties": {
        "norad_id": 34409,
        "name": "COSMOS 2251 DEB",
        "group": "cosmos-2251-debris",
        "lat": -58.400367092937124,
        "lon": 163.9252452912485,
        "alt_km": 754.8768534997707,
        "timestamp": "2025-12-07T18:50:17.109054+00:00",
        "meta_object_name": "COSMOS 2251 DEB",
        "meta_object_id": "1993-036RA",
        "meta_epoch": "2025-12-07T04:37:25.927680",
        "meta_mean_motion": 14.58005767,
        "meta_eccentricity": 0.00796074,
        "meta_inclination": 74.0628,
        "meta_ra_of_asc_node": 317.3728,
        "meta_arg_of_pericenter": 33.2017,
        "meta_mean_anomaly": 342.1701,
        "meta_ephemeris_type": 0,
        "meta_classification_type": "U",
        "meta_norad_cat_id": 34409,
        "meta_element_set_no": 999,
        "meta_rev_at_epoch": 89112,
        "meta_bstar": 0.00043185446,
        "meta_mean_motion_dot": 2.042e-05,
        "meta_mean_motion_ddot": 0,
        "tle_line1": "1 34409U 93036RA  25341.19266120  .00002042  00000+0  43185-3 0  9994",
        "tle_line2": "2 34409  74.0628 317.3728 0079607  33.2017 342.1701 14.58005767891127"
      },
      "geometry": {
        "type": "Point",
        "coordinates": [
          163.9252452912485,
          -58.400367092937124
        ]
      }
    },
    {
      "type": "Feature",
      "properties": {
        "norad_id": 34410,
        "name": "COSMOS 2251 DEB",
        "group": "cosmos-2251-debris",
        "lat": -69.72120421655877,
        "lon": -139.88470619401988,
        "alt_km": 532.126229045386,
        "timestamp": "2025-12-07T18:50:17.109064+00:00",
        "meta_object_name": "COSMOS 2251 DEB",
        "meta_object_id": "1993-036RB",
        "meta_epoch": "2025-12-06T16:37:24.236832",
        "meta_mean_motion": 15.18051629,
        "meta_eccentricity": 0.0020885,
        "meta_inclination": 73.74,
        "meta_ra_of_asc_node": 274.616,
        "meta_arg_of_pericenter": 116.6169,
        "meta_mean_anomaly": 318.5036,
        "meta_ephemeris_type": 0,
        "meta_classification_type": "U",
        "meta_norad_cat_id": 34410,
        "meta_element_set_no": 999,
        "meta_rev_at_epoch": 89682,
        "meta_bstar": 0.0041987337,
        "meta_mean_motion_dot": 0.00087001,
        "meta_mean_motion_ddot": 0,
        "tle_line1": "1 34410U 93036RB  25340.69264163  .00087001  00000+0  41987-2 0  9990",
        "tle_line2": "2 34410  73.7400 274.6160 0020885 116.6169 318.5036 15.18051629896821"
      },
      "geometry": {
        "type": "Point",
        "coordinates": [
          -139.88470619401988,
          -69.72120421655877
        ]
      }
    },
    {
      "type": "Feature",
      "properties": {
        "norad_id": 34412,
        "name": "COSMOS 2251 DEB",
        "group": "cosmos-2251-debris",
        "lat": -67.60170638774756,
        "lon": -70.38564368180447,
        "alt_km": 849.443472772613,
        "timestamp": "2025-12-07T18:50:17.109075+00:00",
        "meta_object_name": "COSMOS 2251 DEB",
        "meta_object_id": "1993-036RD",
        "meta_epoch": "2025-12-07T00:55:56.907840",
        "meta_mean_motion": 14.47045227,
        "meta_eccentricity": 0.01870874,
        "meta_inclination": 73.9484,
        "meta_ra_of_asc_node": 335.3295,
        "meta_arg_of_pericenter": 71.7563,
        "meta_mean_anomaly": 290.3855,
        "meta_ephemeris_type": 0,
        "meta_classification_type": "U",
        "meta_norad_cat_id": 34412,
        "meta_element_set_no": 999,
        "meta_rev_at_epoch": 87568,
        "meta_bstar": 0.0015748183,
        "meta_mean_motion_dot": 7.117e-05,
        "meta_mean_motion_ddot": 0,
        "tle_line1": "1 34412U 93036RD  25341.03885310  .00007117  00000+0  15748-2 0  9990",
        "tle_line2": "2 34412  73.9484 335.3295 0187087  71.7563 290.3855 14.47045227875683"
      },
      "geometry": {
        "type": "Point",
        "coordinates": [
          -70.38564368180447,
          -67.60170638774756
        ]
      }
    },
    {
      "type": "Feature",
      "properties": {
        "norad_id": 34413,
        "name": "COSMOS 2251 DEB",
        "group": "cosmos-2251-debris",
        "lat": 19.74464173010256,
        "lon": -80.22473374250593,
        "alt_km": 737.8187158553137,
        "timestamp": "2025-12-07T18:50:17.109085+00:00",
        "meta_object_name": "COSMOS 2251 DEB",
        "meta_object_id": "1993-036RE",
        "meta_epoch": "2025-12-07T02:00:41.713632",
        "meta_mean_motion": 14.29025214,
        "meta_eccentricity": 0.00907911,
        "meta_inclination": 74.0324,
        "meta_ra_of_asc_node": 275.1492,
        "meta_arg_of_pericenter": 352.6794,
        "meta_mean_anomaly": 22.0934,
        "meta_ephemeris_type": 0,
        "meta_classification_type": "U",
        "meta_norad_cat_id": 34413,
        "meta_element_set_no": 999,
        "meta_rev_at_epoch": 87050,
        "meta_bstar": 0.0028888222,
        "meta_mean_motion_dot": 7.626e-05,
        "meta_mean_motion_ddot": 0,
        "tle_line1": "1 34413U 93036RE  25341.08381613  .00007626  00000+0  28888-2 0  9997",
        "tle_line2": "2 34413  74.0324 275.1492 0090791 352.6794  22.0934 14.29025214870509"
      },
      "geometry": {
        "type": "Point",
        "coordinates": [
          -80.22473374250593,
          19.74464173010256
        ]
      }
    }
  ]
}